start=new Date('2022-11-08T00:00:00.000Z').valueOf();
sats=[{"OBJECT_ID":"2020-062AE","EPHEMERIS_TYPE":"0","COUNTRY_CODE":"US","REV_AT_EPOCH":"12072","TIME_SYSTEM":"UTC","RA_OF_ASC_NODE":"84.4843","LAUNCH_DATE":"2020-09-03","GP_ID":"217103566","ELEMENT_SET_NO":"999","APOAPSIS":"548.126","ARG_OF_PERICENTER":"93.1555","PERIAPSIS":"546.405","MEAN_MOTION":"15.06383046","CENTER_NAME":"EARTH","FILE":"3648233","TLE_LINE2":"2 46353  53.0551  84.4843 0001243  93.1555 266.9576 15.06383046120720","MEAN_ANOMALY":"266.9576","INCLINATION":"53.0551","BSTAR":"0.00004870200000","OBJECT_TYPE":"PAYLOAD","REF_FRAME":"TEME","EPOCH":"2022-11-07T16:19:00.197760","DECAY_DATE":null,"MEAN_ELEMENT_THEORY":"SGP4","TLE_LINE1":"1 46353U 20062AE  22311.67986340  .00000444  00000-0  48702-4 0  9990","SEMIMAJOR_AXIS":"6925.401","RCS_SIZE":"LARGE","ECCENTRICITY":"0.00012430","OBJECT_NAME":"STARLINK-1656","MEAN_MOTION_DDOT":"0.0000000000000","PERIOD":"95.593","CLASSIFICATION_TYPE":"U","NORAD_CAT_ID":"46353","MEAN_MOTION_DOT":"0.00000444","SITE":"AFETR"},{"TLE_LINE2":"2 46354  53.0573  84.5261 0001378 100.6505 259.4639 15.06393105120722","INCLINATION":"53.0573","MEAN_ANOMALY":"259.4639","DECAY_DATE":null,"EPOCH":"2022-11-07T16:03:04.342464","REF_FRAME":"TEME","OBJECT_TYPE":"PAYLOAD","BSTAR":"0.00014162000000","TLE_LINE1":"1 46354U 20062AF  22311.66880026  .00001828  00000-0  14162-3 0  9993","SEMIMAJOR_AXIS":"6925.370","RCS_SIZE":"LARGE","ECCENTRICITY":"0.00013780","MEAN_ELEMENT_THEORY":"SGP4","OBJECT_NAME":"STARLINK-1657","MEAN_MOTION_DDOT":"0.0000000000000","MEAN_MOTION_DOT":"0.00001828","CLASSIFICATION_TYPE":"U","NORAD_CAT_ID":"46354","PERIOD":"95.593","SITE":"AFETR","OBJECT_ID":"2020-062AF","EPHEMERIS_TYPE":"0","COUNTRY_CODE":"US","TIME_SYSTEM":"UTC","RA_OF_ASC_NODE":"84.5261","REV_AT_EPOCH":"12072","LAUNCH_DATE":"2020-09-03","APOAPSIS":"548.189","ELEMENT_SET_NO":"999","GP_ID":"217102315","ARG_OF_PERICENTER":"100.6505","FILE":"3648233","CENTER_NAME":"EARTH","PERIAPSIS":"546.280","MEAN_MOTION":"15.06393105"},{"BSTAR":"0.00015305000000","OBJECT_TYPE":"PAYLOAD","REF_FRAME":"TEME","EPOCH":"2022-11-07T15:25:55.309728","DECAY_DATE":null,"MEAN_ELEMENT_THEORY":"SGP4","RCS_SIZE":"LARGE","TLE_LINE1":"1 46355U 20062AG  22311.64300127  .00001998  00000-0  15305-3 0  9999","SEMIMAJOR_AXIS":"6925.384","ECCENTRICITY":"0.00014060","TLE_LINE2":"2 46355  53.0549  84.6489 0001406 126.6232 233.4886 15.06388366120725","MEAN_ANOMALY":"233.4886","INCLINATION":"53.0549","SITE":"AFETR","OBJECT_NAME":"STARLINK-1661","MEAN_MOTION_DDOT":"0.0000000000000","PERIOD":"95.593","CLASSIFICATION_TYPE":"U","NORAD_CAT_ID":"46355","MEAN_MOTION_DOT":"0.00001998","COUNTRY_CODE":"US","REV_AT_EPOCH":"12072","TIME_SYSTEM":"UTC","RA_OF_ASC_NODE":"84.6489","OBJECT_ID":"2020-062AG","EPHEMERIS_TYPE":"0","ARG_OF_PERICENTER":"126.6232","MEAN_MOTION":"15.06388366","PERIAPSIS":"546.276","CENTER_NAME":"EARTH","FILE":"3648233","LAUNCH_DATE":"2020-09-03","GP_ID":"217102565","ELEMENT_SET_NO":"999","APOAPSIS":"548.223"},{"GP_ID":"217103814","ELEMENT_SET_NO":"999","APOAPSIS":"548.046","LAUNCH_DATE":"2020-09-03","MEAN_MOTION":"15.06423658","PERIAPSIS":"546.236","CENTER_NAME":"EARTH","FILE":"3648233","ARG_OF_PERICENTER":"127.2832","EPHEMERIS_TYPE":"0","OBJECT_ID":"2020-062AH","REV_AT_EPOCH":"12072","RA_OF_ASC_NODE":"84.5946","TIME_SYSTEM":"UTC","COUNTRY_CODE":"US","PERIOD":"95.591","NORAD_CAT_ID":"46356","CLASSIFICATION_TYPE":"U","MEAN_MOTION_DOT":"-0.00006986","MEAN_MOTION_DDOT":"0.0000000000000","OBJECT_NAME":"STARLINK-1665","SITE":"AFETR","MEAN_ANOMALY":"232.8276","INCLINATION":"53.0548","TLE_LINE2":"2 46356  53.0548  84.5946 0001307 127.2832 232.8276 15.06423658120725","MEAN_ELEMENT_THEORY":"SGP4","TLE_LINE1":"1 46356U 20062AH  22311.65309732 -.00006986  00000-0 -45025-3 0  9998","RCS_SIZE":"LARGE","SEMIMAJOR_AXIS":"6925.276","ECCENTRICITY":"0.00013070","BSTAR":"-0.00045025000000","OBJECT_TYPE":"PAYLOAD","EPOCH":"2022-11-07T15:40:27.608448","REF_FRAME":"TEME","DECAY_DATE":null},{"SITE":"AFETR","MEAN_MOTION_DDOT":"0.0000000000000","OBJECT_NAME":"STARLINK-1666","NORAD_CAT_ID":"46357","CLASSIFICATION_TYPE":"U","MEAN_MOTION_DOT":"0.00002438","PERIOD":"95.593","REF_FRAME":"TEME","EPOCH":"2022-11-07T14:03:39.495456","DECAY_DATE":null,"OBJECT_TYPE":"PAYLOAD","BSTAR":"0.00018258000000","TLE_LINE1":"1 46357U 20062AJ  22311.58587379  .00002438  00000-0  18258-3 0  9990","ECCENTRICITY":"0.00011820","RCS_SIZE":"LARGE","SEMIMAJOR_AXIS":"6925.403","MEAN_ELEMENT_THEORY":"SGP4","TLE_LINE2":"2 46357  53.0562  64.9027 0001182  88.5260 271.5864 15.06382319120999","MEAN_ANOMALY":"271.5864","INCLINATION":"53.0562","ARG_OF_PERICENTER":"88.5260","FILE":"3648233","MEAN_MOTION":"15.06382319","PERIAPSIS":"546.449","CENTER_NAME":"EARTH","LAUNCH_DATE":"2020-09-03","APOAPSIS":"548.086","GP_ID":"217104065","ELEMENT_SET_NO":"999","COUNTRY_CODE":"US","RA_OF_ASC_NODE":"64.9027","TIME_SYSTEM":"UTC","REV_AT_EPOCH":"12099","OBJECT_ID":"2020-062AJ","EPHEMERIS_TYPE":"0"},{"OBJECT_ID":"2020-062AK","EPHEMERIS_TYPE":"0","COUNTRY_CODE":"US","RA_OF_ASC_NODE":"86.7827","TIME_SYSTEM":"UTC","REV_AT_EPOCH":"12065","LAUNCH_DATE":"2020-09-03","APOAPSIS":"548.509","ELEMENT_SET_NO":"999","GP_ID":"217102814","ARG_OF_PERICENTER":"103.5831","FILE":"3648233","CENTER_NAME":"EARTH","MEAN_MOTION":"15.06405582","PERIAPSIS":"545.884","TLE_LINE2":"2 46358  53.0551  86.7827 0001895 103.5831 256.5369 15.06405582120655","INCLINATION":"53.0551","MEAN_ANOMALY":"256.5369","DECAY_DATE":null,"EPOCH":"2022-11-07T04:01:12.390528","REF_FRAME":"TEME","BSTAR":"-0.00014804000000","OBJECT_TYPE":"PAYLOAD","RCS_SIZE":"LARGE","TLE_LINE1":"1 46358U 20062AK  22311.16750452 -.00002486  00000-0 -14804-3 0  9997","SEMIMAJOR_AXIS":"6925.331","ECCENTRICITY":"0.00018950","MEAN_ELEMENT_THEORY":"SGP4","OBJECT_NAME":"STARLINK-1690","MEAN_MOTION_DDOT":"0.0000000000000","MEAN_MOTION_DOT":"-0.00002486","CLASSIFICATION_TYPE":"U","NORAD_CAT_ID":"46358","PERIOD":"95.592","SITE":"AFETR"},{"ARG_OF_PERICENTER":"76.4673","FILE":"3648233","CENTER_NAME":"EARTH","PERIAPSIS":"546.319","MEAN_MOTION":"15.06391255","LAUNCH_DATE":"2020-09-03","APOAPSIS":"548.162","ELEMENT_SET_NO":"999","GP_ID":"217103064","COUNTRY_CODE":"US","TIME_SYSTEM":"UTC","RA_OF_ASC_NODE":"40.0876","REV_AT_EPOCH":"12133","OBJECT_ID":"2020-062AL","EPHEMERIS_TYPE":"0","SITE":"AFETR","MEAN_MOTION_DDOT":"0.0000000000000","OBJECT_NAME":"STARLINK-1707","MEAN_MOTION_DOT":"0.00000730","NORAD_CAT_ID":"46359","CLASSIFICATION_TYPE":"U","PERIOD":"95.593","DECAY_DATE":null,"EPOCH":"2022-11-07T13:05:55.952736","REF_FRAME":"TEME","OBJECT_TYPE":"PAYLOAD","BSTAR":"0.00006791500000","RCS_SIZE":"LARGE","TLE_LINE1":"1 46359U 20062AL  22311.54578649  .00000730  00000-0  67915-4 0  9996","ECCENTRICITY":"0.00013310","SEMIMAJOR_AXIS":"6925.375","MEAN_ELEMENT_THEORY":"SGP4","TLE_LINE2":"2 46359  53.0560  40.0876 0001331  76.4673 283.6464 15.06391255121334","INCLINATION":"53.0560","MEAN_ANOMALY":"283.6464"},{"TLE_LINE2":"2 46360  53.0562  39.6911 0001662  64.9776 295.1385 15.06385345121350","MEAN_ANOMALY":"295.1385","INCLINATION":"53.0562","BSTAR":"0.00018268000000","OBJECT_TYPE":"PAYLOAD","REF_FRAME":"TEME","EPOCH":"2022-11-07T15:13:18.842304","DECAY_DATE":null,"MEAN_ELEMENT_THEORY":"SGP4","TLE_LINE1":"1 46360U 20062AM  22311.63424586  .00002439  00000-0  18268-3 0  9992","RCS_SIZE":"LARGE","SEMIMAJOR_AXIS":"6925.393","ECCENTRICITY":"0.00016620","OBJECT_NAME":"STARLINK-1713","MEAN_MOTION_DDOT":"0.0000000000000","PERIOD":"95.593","CLASSIFICATION_TYPE":"U","NORAD_CAT_ID":"46360","MEAN_MOTION_DOT":"0.00002439","SITE":"AFETR","OBJECT_ID":"2020-062AM","EPHEMERIS_TYPE":"0","COUNTRY_CODE":"US","REV_AT_EPOCH":"12135","RA_OF_ASC_NODE":"39.6911","TIME_SYSTEM":"UTC","LAUNCH_DATE":"2020-09-03","GP_ID":"217103316","ELEMENT_SET_NO":"999","APOAPSIS":"548.409","ARG_OF_PERICENTER":"64.9776","PERIAPSIS":"546.107","MEAN_MOTION":"15.06385345","CENTER_NAME":"EARTH","FILE":"3648233"},{"SITE":"AFETR","OBJECT_NAME":"STARLINK-1722","MEAN_MOTION_DDOT":"0.0000000000000","NORAD_CAT_ID":"46361","CLASSIFICATION_TYPE":"U","MEAN_MOTION_DOT":"0.00002740","PERIOD":"95.593","EPOCH":"2022-11-07T12:53:56.837760","REF_FRAME":"TEME","DECAY_DATE":null,"OBJECT_TYPE":"PAYLOAD","BSTAR":"0.00020281000000","TLE_LINE1":"1 46361U 20062AN  22311.53746340  .00002740  00000-0  20281-3 0  9990","SEMIMAJOR_AXIS":"6925.383","RCS_SIZE":"LARGE","ECCENTRICITY":"0.00012700","MEAN_ELEMENT_THEORY":"SGP4","TLE_LINE2":"2 46361  53.0570  40.0960 0001270  90.1491 269.9644 15.06388655121332","MEAN_ANOMALY":"269.9644","INCLINATION":"53.0570","ARG_OF_PERICENTER":"90.1491","FILE":"3648233","PERIAPSIS":"546.369","MEAN_MOTION":"15.06388655","CENTER_NAME":"EARTH","LAUNCH_DATE":"2020-09-03","APOAPSIS":"548.128","GP_ID":"217103567","ELEMENT_SET_NO":"999","COUNTRY_CODE":"US","RA_OF_ASC_NODE":"40.0960","TIME_SYSTEM":"UTC","REV_AT_EPOCH":"12133","OBJECT_ID":"2020-062AN","EPHEMERIS_TYPE":"0"},{"ARG_OF_PERICENTER":"70.9787","FILE":"3648233","PERIAPSIS":"546.199","MEAN_MOTION":"15.06404106","CENTER_NAME":"EARTH","LAUNCH_DATE":"2020-09-03","APOAPSIS":"548.203","GP_ID":"217102316","ELEMENT_SET_NO":"999","COUNTRY_CODE":"US","TIME_SYSTEM":"UTC","RA_OF_ASC_NODE":"39.6247","REV_AT_EPOCH":"12135","OBJECT_ID":"2020-062AP","EPHEMERIS_TYPE":"0","SITE":"AFETR","MEAN_MOTION_DDOT":"0.0000000000000","OBJECT_NAME":"STARLINK-1726","CLASSIFICATION_TYPE":"U","NORAD_CAT_ID":"46362","MEAN_MOTION_DOT":"0.00009141","PERIOD":"95.592","REF_FRAME":"TEME","EPOCH":"2022-11-07T15:34:33.307968","DECAY_DATE":null,"OBJECT_TYPE":"PAYLOAD","BSTAR":"0.00063168000000","TLE_LINE1":"1 46362U 20062AP  22311.64899662  .00009141  00000-0  63168-3 0  9992","RCS_SIZE":"LARGE","ECCENTRICITY":"0.00014470","SEMIMAJOR_AXIS":"6925.336","MEAN_ELEMENT_THEORY":"SGP4","TLE_LINE2":"2 46362  53.0553  39.6247 0001447  70.9787 289.1359 15.06404106121355","MEAN_ANOMALY":"289.1359","INCLINATION":"53.0553"}];
